GLOBALSTAR M063 [+]     
1 26081U 00008A   24050.95588162 -.00000092  00000+0 -13166-3 0  9992
2 26081  51.9966 304.2114 0005224 102.5361 271.6049 11.86151168100234
GLOBALSTAR M062 [-]     
1 26082U 00008B   24050.80452694 -.00000071  00000+0  19611-3 0  9994
2 26082  51.9842  77.2195 0007447 159.3975  16.7713 12.43428644436489
GLOBALSTAR M060 [-]     
1 26083U 00008C   24050.50964241  .00000012  00000+0  10234-2 0  9993
2 26083  52.0047 329.6713 0002786 220.3093 310.8016 12.17628123 93444
GLOBALSTAR M069 [+]     
1 31573U 07020C   24050.90235830 -.00000064  00000+0  22043-3 0  9993
2 31573  51.9927 213.1520 0001698 103.6382  61.6819 12.62256925773519
GLOBALSTAR M071 [P]     
1 31576U 07020F   24050.92878100 -.00000080  00000+0  13382-3 0  9995
2 31576  52.0041 218.1447 0002079 111.8384  53.2901 12.62267548434708
